{
  "norad_id": 66901,
  "name": "STARLINK-36043",
  "history": [
    {
      "epoch": "2026-03-28T19:52:01.031808Z",
      "apogee_km": 475.8210495737858,
      "perigee_km": 474.67968644151733,
      "latitude_deg": 1.0955084572259815e-05,
      "longitude_deg": 171.06676628461605,
      "height_km": 476.337067376756,
      "semi_major_axis_km": 6853.387368007651,
      "eccentricity": 8.327e-05,
      "inclination_deg": 53.1603,
      "raan_deg": 295.3137,
      "arg_perigee_deg": 109.2294,
      "mean_anomaly_deg": 250.8797,
      "mean_motion_rev_day": 15.30188178
    }
  ]
}